{
  "links" : {
    "next" : "https://api.nasa.gov/neo/rest/v1/feed?start_date=2006-10-16&end_date=2006-10-16&detailed=true&api_key=t0TVs3DtDT2H8Oy2Zy8m2eVrNsAVKAexjcZXUckd",
    "prev" : "https://api.nasa.gov/neo/rest/v1/feed?start_date=2006-10-14&end_date=2006-10-14&detailed=true&api_key=t0TVs3DtDT2H8Oy2Zy8m2eVrNsAVKAexjcZXUckd",
    "self" : "https://api.nasa.gov/neo/rest/v1/feed?start_date=2006-10-15&end_date=2006-10-15&detailed=true&api_key=t0TVs3DtDT2H8Oy2Zy8m2eVrNsAVKAexjcZXUckd"
  },
  "element_count" : 3,
  "near_earth_objects" : {
    "2006-10-15" : [ {
      "links" : {
        "self" : "https://api.nasa.gov/neo/rest/v1/neo/3022970?api_key=t0TVs3DtDT2H8Oy2Zy8m2eVrNsAVKAexjcZXUckd"
      },
      "neo_reference_id" : "3022970",
      "name" : "(1999 SG10)",
      "nasa_jpl_url" : "http://ssd.jpl.nasa.gov/sbdb.cgi?sstr=3022970",
      "absolute_magnitude_h" : 20.5,
      "estimated_diameter" : {
        "kilometers" : {
          "estimated_diameter_min" : 0.2111324448,
          "estimated_diameter_max" : 0.4721064988
        },
        "meters" : {
          "estimated_diameter_min" : 211.1324447897,
          "estimated_diameter_max" : 472.1064988055
        },
        "miles" : {
          "estimated_diameter_min" : 0.1311915784,
          "estimated_diameter_max" : 0.2933532873
        },
        "feet" : {
          "estimated_diameter_min" : 692.6917701639,
          "estimated_diameter_max" : 1548.9058855411
        }
      },
      "is_potentially_hazardous_asteroid" : true,
      "close_approach_data" : [ {
        "close_approach_date" : "2006-10-15",
        "epoch_date_close_approach" : 1160895600000,
        "relative_velocity" : {
          "kilometers_per_second" : "18.8858005102",
          "kilometers_per_hour" : "67988.8818367139",
          "miles_per_hour" : "42245.6471612626"
        },
        "miss_distance" : {
          "astronomical" : "0.1271876483",
          "lunar" : "49.4759979248",
          "kilometers" : "19027002",
          "miles" : "11822831"
        },
        "orbiting_body" : "Earth"
      } ],
      "orbital_data" : {
        "orbit_id" : "33",
        "orbit_determination_date" : "2017-04-06 09:17:21",
        "orbit_uncertainty" : "0",
        "minimum_orbit_intersection" : ".0285212",
        "jupiter_tisserand_invariant" : "4.345",
        "epoch_osculation" : "2458000.5",
        "eccentricity" : ".6132024443842551",
        "semi_major_axis" : "1.453638987868928",
        "inclination" : "23.55837363268557",
        "ascending_node_longitude" : "13.49679062330535",
        "orbital_period" : "640.1522419049428",
        "perihelion_distance" : ".5622640072554468",
        "perihelion_argument" : "103.3124779375411",
        "aphelion_distance" : "2.345013968482409",
        "perihelion_time" : "2457919.202150066765",
        "mean_anomaly" : "45.71916500498749",
        "mean_motion" : ".5623662254602507",
        "equinox" : "J2000"
      }
    }, {
      "links" : {
        "self" : "https://api.nasa.gov/neo/rest/v1/neo/3581238?api_key=t0TVs3DtDT2H8Oy2Zy8m2eVrNsAVKAexjcZXUckd"
      },
      "neo_reference_id" : "3581238",
      "name" : "(2011 TG2)",
      "nasa_jpl_url" : "http://ssd.jpl.nasa.gov/sbdb.cgi?sstr=3581238",
      "absolute_magnitude_h" : 20.4,
      "estimated_diameter" : {
        "kilometers" : {
          "estimated_diameter_min" : 0.2210828104,
          "estimated_diameter_max" : 0.4943561926
        },
        "meters" : {
          "estimated_diameter_min" : 221.0828103591,
          "estimated_diameter_max" : 494.3561926196
        },
        "miles" : {
          "estimated_diameter_min" : 0.137374447,
          "estimated_diameter_max" : 0.3071786018
        },
        "feet" : {
          "estimated_diameter_min" : 725.3373275385,
          "estimated_diameter_max" : 1621.9035709942
        }
      },
      "is_potentially_hazardous_asteroid" : false,
      "close_approach_data" : [ {
        "close_approach_date" : "2006-10-15",
        "epoch_date_close_approach" : 1160895600000,
        "relative_velocity" : {
          "kilometers_per_second" : "14.0025252764",
          "kilometers_per_hour" : "50409.0909951484",
          "miles_per_hour" : "31322.2487908465"
        },
        "miss_distance" : {
          "astronomical" : "0.3345586577",
          "lunar" : "130.1433258057",
          "kilometers" : "50049264",
          "miles" : "31099172"
        },
        "orbiting_body" : "Earth"
      } ],
      "orbital_data" : {
        "orbit_id" : "24",
        "orbit_determination_date" : "2017-04-06 08:52:33",
        "orbit_uncertainty" : "1",
        "minimum_orbit_intersection" : ".0511177",
        "jupiter_tisserand_invariant" : "6.484",
        "epoch_osculation" : "2458000.5",
        "eccentricity" : ".5147876322815463",
        "semi_major_axis" : ".8938575799171852",
        "inclination" : "21.09358036965412",
        "ascending_node_longitude" : "12.96137180959469",
        "orbital_period" : "308.6746169245088",
        "perihelion_distance" : ".4337107527547043",
        "perihelion_argument" : "218.6192689166658",
        "aphelion_distance" : "1.354004407079666",
        "perihelion_time" : "2457927.519776900601",
        "mean_anomaly" : "85.1151305460568",
        "mean_motion" : "1.166276655939104",
        "equinox" : "J2000"
      }
    }, {
      "links" : {
        "self" : "https://api.nasa.gov/neo/rest/v1/neo/3655761?api_key=t0TVs3DtDT2H8Oy2Zy8m2eVrNsAVKAexjcZXUckd"
      },
      "neo_reference_id" : "3655761",
      "name" : "(2014 AE29)",
      "nasa_jpl_url" : "http://ssd.jpl.nasa.gov/sbdb.cgi?sstr=3655761",
      "absolute_magnitude_h" : 27.4,
      "estimated_diameter" : {
        "kilometers" : {
          "estimated_diameter_min" : 0.0088014652,
          "estimated_diameter_max" : 0.0196806745
        },
        "meters" : {
          "estimated_diameter_min" : 8.801465209,
          "estimated_diameter_max" : 19.6806745089
        },
        "miles" : {
          "estimated_diameter_min" : 0.0054689752,
          "estimated_diameter_max" : 0.0122290004
        },
        "feet" : {
          "estimated_diameter_min" : 28.8761991163,
          "estimated_diameter_max" : 64.5691441559
        }
      },
      "is_potentially_hazardous_asteroid" : false,
      "close_approach_data" : [ {
        "close_approach_date" : "2006-10-15",
        "epoch_date_close_approach" : 1160895600000,
        "relative_velocity" : {
          "kilometers_per_second" : "14.153364901",
          "kilometers_per_hour" : "50952.1136434974",
          "miles_per_hour" : "31659.6619469831"
        },
        "miss_distance" : {
          "astronomical" : "0.3275096335",
          "lunar" : "127.4012527466",
          "kilometers" : "48994744",
          "miles" : "30443924"
        },
        "orbiting_body" : "Earth"
      } ],
      "orbital_data" : {
        "orbit_id" : "5",
        "orbit_determination_date" : "2017-04-06 08:42:58",
        "orbit_uncertainty" : "6",
        "minimum_orbit_intersection" : ".0110091",
        "jupiter_tisserand_invariant" : "6.558",
        "epoch_osculation" : "2458000.5",
        "eccentricity" : ".1582910382585499",
        "semi_major_axis" : ".9070830748893509",
        "inclination" : "4.856543021520674",
        "ascending_node_longitude" : "103.1268230186044",
        "orbital_period" : "315.5506086907696",
        "perihelion_distance" : ".7634999531783576",
        "perihelion_argument" : "137.8817635727509",
        "aphelion_distance" : "1.050666196600344",
        "perihelion_time" : "2458032.303167889953",
        "mean_anomaly" : "323.7169438909147",
        "mean_motion" : "1.14086295537078",
        "equinox" : "J2000"
      }
    } ]
  }
}